ONEWEB-0684             
1 56720U 23068L   24208.46279130 -.00000038  00000+0 -13544-3 0  9999
2 56720  87.9023  36.7028 0000975  29.6991 330.4195 13.15548604 58436
ONEWEB-0686             
1 56721U 23068M   24208.43131759  .00000126  00000+0  29642-3 0  9993
2 56721  87.9112   6.3451 0001662  98.2589 261.8730 13.16594612 60827
ONEWEB-0694             
1 56722U 23068N   24208.39095274 -.00000049  00000+0 -16227-3 0  9991
2 56722  87.9109   6.2716 0002032 107.5502 252.5851 13.16590996 60875
ONEWEB-0696             
1 56723U 23068P   24208.42000865  .00000052  00000+0  10384-3 0  9998
2 56723  87.9019  36.6853 0001827  79.3112 280.8224 13.15549359 58544
ONEWEB-0721             
1 56725U 23068R   24208.32643969  .00005483  00000+0  63172-3 0  9993
2 56725  86.6795 319.7137 0012510 126.3446 233.8935 14.85485239 64321
